[{"OBJECT_NAME":"DMSP 5D-3 F16 (USA 172)","OBJECT_ID":"2003-048A","EPOCH":"2026-03-05T23:01:33.156192","MEAN_MOTION":14.14460294,"ECCENTRICITY":0.00081797,"INCLINATION":98.9996,"RA_OF_ASC_NODE":88.0584,"ARG_OF_PERICENTER":81.9916,"MEAN_ANOMALY":338.9581,"EPHEMERIS_TYPE":0,"CLASSIFICATION_TYPE":"U","NORAD_CAT_ID":28054,"ELEMENT_SET_NO":999,"REV_AT_EPOCH":15489,"BSTAR":0.00010956437,"MEAN_MOTION_DOT":1.65e-6,"MEAN_MOTION_DDOT":0},{"OBJECT_NAME":"METEOSAT-9 (MSG-2)","OBJECT_ID":"2005-049B","EPOCH":"2026-03-05T14:12:55.418112","MEAN_MOTION":1.00277983,"ECCENTRICITY":0.0001671,"INCLINATION":9.1276,"RA_OF_ASC_NODE":55.1704,"ARG_OF_PERICENTER":223.3348,"MEAN_ANOMALY":143.8053,"EPHEMERIS_TYPE":0,"CLASSIFICATION_TYPE":"U","NORAD_CAT_ID":28912,"ELEMENT_SET_NO":999,"REV_AT_EPOCH":596,"BSTAR":0,"MEAN_MOTION_DOT":1.19e-6,"MEAN_MOTION_DDOT":0},{"OBJECT_NAME":"DMSP 5D-3 F17 (USA 191)","OBJECT_ID":"2006-050A","EPOCH":"2026-03-06T00:01:21.707616","MEAN_MOTION":14.14961837,"ECCENTRICITY":0.00099757,"INCLINATION":98.7413,"RA_OF_ASC_NODE":73.6711,"ARG_OF_PERICENTER":357.5464,"MEAN_ANOMALY":2.5659,"EPHEMERIS_TYPE":0,"CLASSIFICATION_TYPE":"U","NORAD_CAT_ID":29522,"ELEMENT_SET_NO":999,"REV_AT_EPOCH":99782,"BSTAR":0.00012891788,"MEAN_MOTION_DOT":2.06e-6,"MEAN_MOTION_DDOT":0},{"OBJECT_NAME":"FENGYUN 3A","OBJECT_ID":"2008-026A","EPOCH":"2026-03-05T17:13:20.416224","MEAN_MOTION":14.19544924,"ECCENTRICITY":0.0009773,"INCLINATION":98.6793,"RA_OF_ASC_NODE":7.5396,"ARG_OF_PERICENTER":68.5046,"MEAN_ANOMALY":291.7172,"EPHEMERIS_TYPE":0,"CLASSIFICATION_TYPE":"U","NORAD_CAT_ID":32958,"ELEMENT_SET_NO":999,"REV_AT_EPOCH":92072,"BSTAR":9.7058123e-5,"MEAN_MOTION_DOT":1.61e-6,"MEAN_MOTION_DDOT":0},{"OBJECT_NAME":"GOES 14","OBJECT_ID":"2009-033A","EPOCH":"2026-03-05T18:22:31.486080","MEAN_MOTION":1.00100039,"ECCENTRICITY":0.00017937,"INCLINATION":1.4228,"RA_OF_ASC_NODE":84.4012,"ARG_OF_PERICENTER":254.3636,"MEAN_ANOMALY":301.3765,"EPHEMERIS_TYPE":0,"CLASSIFICATION_TYPE":"U","NORAD_CAT_ID":35491,"ELEMENT_SET_NO":999,"REV_AT_EPOCH":555,"BSTAR":0,"MEAN_MOTION_DOT":1.19e-6,"MEAN_MOTION_DDOT":0},{"OBJECT_NAME":"DMSP 5D-3 F18 (USA 210)","OBJECT_ID":"2009-057A","EPOCH":"2026-03-05T21:26:41.837856","MEAN_MOTION":14.14832913,"ECCENTRICITY":0.00109053,"INCLINATION":98.8959,"RA_OF_ASC_NODE":45.9357,"ARG_OF_PERICENTER":179.0594,"MEAN_ANOMALY":181.0602,"EPHEMERIS_TYPE":0,"CLASSIFICATION_TYPE":"U","NORAD_CAT_ID":35951,"ELEMENT_SET_NO":999,"REV_AT_EPOCH":84498,"BSTAR":0.00018411461,"MEAN_MOTION_DOT":3.11e-6,"MEAN_MOTION_DDOT":0},{"OBJECT_NAME":"EWS-G2 (GOES 15)","OBJECT_ID":"2010-008A","EPOCH":"2026-03-05T22:02:21.527808","MEAN_MOTION":1.00269667,"ECCENTRICITY":0.00019767,"INCLINATION":1.0125,"RA_OF_ASC_NODE":85.1188,"ARG_OF_PERICENTER":18.8284,"MEAN_ANOMALY":93.7556,"EPHEMERIS_TYPE":0,"CLASSIFICATION_TYPE":"U","NORAD_CAT_ID":36411,"ELEMENT_SET_NO":999,"REV_AT_EPOCH":5860,"BSTAR":0,"MEAN_MOTION_DOT":1.5e-7,"MEAN_MOTION_DDOT":0},{"OBJECT_NAME":"COMS 1","OBJECT_ID":"2010-032A","EPOCH":"2026-03-05T22:58:38.508096","MEAN_MOTION":1.00271922,"ECCENTRICITY":0.00012271,"INCLINATION":4.5396,"RA_OF_ASC_NODE":76.849,"ARG_OF_PERICENTER":290.3304,"MEAN_ANOMALY":269.3388,"EPHEMERIS_TYPE":0,"CLASSIFICATION_TYPE":"U","NORAD_CAT_ID":36744,"ELEMENT_SET_NO":999,"REV_AT_EPOCH":5005,"BSTAR":0,"MEAN_MOTION_DOT":-3.49e-6,"MEAN_MOTION_DDOT":0},{"OBJECT_NAME":"FENGYUN 3B","OBJECT_ID":"2010-059A","EPOCH":"2026-03-05T23:50:48.056928","MEAN_MOTION":14.14816269,"ECCENTRICITY":0.00230252,"INCLINATION":98.977,"RA_OF_ASC_NODE":110.5063,"ARG_OF_PERICENTER":118.2473,"MEAN_ANOMALY":357.0833,"EPHEMERIS_TYPE":0,"CLASSIFICATION_TYPE":"U","NORAD_CAT_ID":37214,"ELEMENT_SET_NO":999,"REV_AT_EPOCH":79283,"BSTAR":0.00011551605,"MEAN_MOTION_DOT":1.78e-6,"MEAN_MOTION_DDOT":0},{"OBJECT_NAME":"SUOMI NPP","OBJECT_ID":"2011-061A","EPOCH":"2026-03-05T22:29:21.642720","MEAN_MOTION":14.19542251,"ECCENTRICITY":3.986e-5,"INCLINATION":98.7867,"RA_OF_ASC_NODE":6.5696,"ARG_OF_PERICENTER":266.0215,"MEAN_ANOMALY":94.0916,"EPHEMERIS_TYPE":0,"CLASSIFICATION_TYPE":"U","NORAD_CAT_ID":37849,"ELEMENT_SET_NO":999,"REV_AT_EPOCH":74379,"BSTAR":8.4493904e-5,"MEAN_MOTION_DOT":1.34e-6,"MEAN_MOTION_DDOT":0},{"OBJECT_NAME":"METEOSAT-10 (MSG-3)","OBJECT_ID":"2012-035B","EPOCH":"2026-03-05T19:07:57.129600","MEAN_MOTION":1.00267713,"ECCENTRICITY":0.00024948,"INCLINATION":4.427,"RA_OF_ASC_NODE":61.4577,"ARG_OF_PERICENTER":281.7598,"MEAN_ANOMALY":107.552,"EPHEMERIS_TYPE":0,"CLASSIFICATION_TYPE":"U","NORAD_CAT_ID":38552,"ELEMENT_SET_NO":999,"REV_AT_EPOCH":4982,"BSTAR":0,"MEAN_MOTION_DOT":-1.1e-7,"MEAN_MOTION_DDOT":0},{"OBJECT_NAME":"METOP-B","OBJECT_ID":"2012-049A","EPOCH":"2026-03-05T22:12:41.652576","MEAN_MOTION":14.21443185,"ECCENTRICITY":0.00011966,"INCLINATION":98.6649,"RA_OF_ASC_NODE":118.4209,"ARG_OF_PERICENTER":286.5125,"MEAN_ANOMALY":73.5921,"EPHEMERIS_TYPE":0,"CLASSIFICATION_TYPE":"U","NORAD_CAT_ID":38771,"ELEMENT_SET_NO":999,"REV_AT_EPOCH":69859,"BSTAR":8.8131444e-5,"MEAN_MOTION_DOT":1.49e-6,"MEAN_MOTION_DDOT":0},{"OBJECT_NAME":"INSAT-3D","OBJECT_ID":"2013-038B","EPOCH":"2026-03-05T23:10:10.248096","MEAN_MOTION":1.0027282,"ECCENTRICITY":0.00017127,"INCLINATION":1.6594,"RA_OF_ASC_NODE":83.8924,"ARG_OF_PERICENTER":245.7717,"MEAN_ANOMALY":311.0598,"EPHEMERIS_TYPE":0,"CLASSIFICATION_TYPE":"U","NORAD_CAT_ID":39216,"ELEMENT_SET_NO":999,"REV_AT_EPOCH":4604,"BSTAR":0,"MEAN_MOTION_DOT":-3.44e-6,"MEAN_MOTION_DDOT":0},{"OBJECT_NAME":"FENGYUN 3C","OBJECT_ID":"2013-052A","EPOCH":"2026-03-05T22:19:18.028128","MEAN_MOTION":14.15727649,"ECCENTRICITY":0.00140187,"INCLINATION":98.4886,"RA_OF_ASC_NODE":43.6015,"ARG_OF_PERICENTER":324.596,"MEAN_ANOMALY":35.4283,"EPHEMERIS_TYPE":0,"CLASSIFICATION_TYPE":"U","NORAD_CAT_ID":39260,"ELEMENT_SET_NO":999,"REV_AT_EPOCH":64395,"BSTAR":0.00011444412,"MEAN_MOTION_DOT":1.83e-6,"MEAN_MOTION_DDOT":0},{"OBJECT_NAME":"METEOR-M 2","OBJECT_ID":"2014-037A","EPOCH":"2026-03-05T22:51:45.562752","MEAN_MOTION":14.21426234,"ECCENTRICITY":0.00055828,"INCLINATION":98.502,"RA_OF_ASC_NODE":44.4016,"ARG_OF_PERICENTER":349.0225,"MEAN_ANOMALY":11.083,"EPHEMERIS_TYPE":0,"CLASSIFICATION_TYPE":"U","NORAD_CAT_ID":40069,"ELEMENT_SET_NO":999,"REV_AT_EPOCH":60465,"BSTAR":-3.452858e-6,"MEAN_MOTION_DOT":-5.0e-7,"MEAN_MOTION_DDOT":0},{"OBJECT_NAME":"HIMAWARI-8","OBJECT_ID":"2014-060A","EPOCH":"2026-03-05T23:13:24.936672","MEAN_MOTION":1.00271621,"ECCENTRICITY":7.206e-5,"INCLINATION":0.0252,"RA_OF_ASC_NODE":238.2083,"ARG_OF_PERICENTER":99.4681,"MEAN_ANOMALY":315.0191,"EPHEMERIS_TYPE":0,"CLASSIFICATION_TYPE":"U","NORAD_CAT_ID":40267,"ELEMENT_SET_NO":999,"REV_AT_EPOCH":4172,"BSTAR":0,"MEAN_MOTION_DOT":-2.82e-6,"MEAN_MOTION_DDOT":0},{"OBJECT_NAME":"FENGYUN 2G","OBJECT_ID":"2014-090A","EPOCH":"2026-03-05T23:01:41.061792","MEAN_MOTION":1.00274073,"ECCENTRICITY":0.00017482,"INCLINATION":5.378,"RA_OF_ASC_NODE":74.0689,"ARG_OF_PERICENTER":151.3786,"MEAN_ANOMALY":23.3502,"EPHEMERIS_TYPE":0,"CLASSIFICATION_TYPE":"U","NORAD_CAT_ID":40367,"ELEMENT_SET_NO":999,"REV_AT_EPOCH":4096,"BSTAR":0,"MEAN_MOTION_DOT":-3.07e-6,"MEAN_MOTION_DDOT":0}]
