DMSP 5D-3 F16 (USA 172) 
1 28054U 03048A   26064.95941153  .00000165  00000+0  10956-3 0  9994
2 28054  98.9996  88.0584 0008179  81.9916 338.9581 14.14460294154892
METEOSAT-9 (MSG-2)      
1 28912U 05049B   26064.59230808  .00000119  00000+0  00000+0 0  9992
2 28912   9.1276  55.1704 0001671 223.3348 143.8053  1.00277983  5962
DMSP 5D-3 F17 (USA 191) 
1 29522U 06050A   26065.00094569  .00000206  00000+0  12892-3 0  9995
2 29522  98.7413  73.6711 0009975 357.5464   2.5659 14.14961837997829
FENGYUN 3A              
1 32958U 08026A   26064.71759741  .00000161  00000+0  97058-4 0  9992
2 32958  98.6793   7.5396 0009773  68.5046 291.7172 14.19544924920728
GOES 14                 
1 35491U 09033A   26064.76564220  .00000119  00000+0  00000+0 0  9996
2 35491   1.4228  84.4012 0001793 254.3636 301.3765  1.00100039  5553
DMSP 5D-3 F18 (USA 210) 
1 35951U 09057A   26064.89353979  .00000311  00000+0  18411-3 0  9997
2 35951  98.8959  45.9357 0010905 179.0594 181.0602 14.14832913844983
EWS-G2 (GOES 15)        
1 36411U 10008A   26064.91830472  .00000015  00000+0  00000+0 0  9990
2 36411   1.0125  85.1188 0001976  18.8284  93.7556  1.00269667 58602
COMS 1                  
1 36744U 10032A   26064.95739014 -.00000349  00000+0  00000+0 0  9991
2 36744   4.5396  76.8490 0001227 290.3304 269.3388  1.00271922 50053
FENGYUN 3B              
1 37214U 10059A   26064.99361177  .00000178  00000+0  11552-3 0  9995
2 37214  98.9770 110.5063 0023025 118.2473 357.0833 14.14816269792833
SUOMI NPP               
1 37849U 11061A   26064.93705605  .00000134  00000+0  84494-4 0  9993
2 37849  98.7867   6.5696 0000398 266.0215  94.0916 14.19542251743795
METEOSAT-10 (MSG-3)     
1 38552U 12035B   26064.79718900 -.00000011  00000+0  00000+0 0  9994
2 38552   4.4270  61.4577 0002494 281.7598 107.5520  1.00267713 49821
METOP-B                 
1 38771U 12049A   26064.92548209  .00000149  00000+0  88131-4 0  9997
2 38771  98.6649 118.4209 0001196 286.5125  73.5921 14.21443185698598
INSAT-3D                
1 39216U 13038B   26064.96539639 -.00000344  00000+0  00000+0 0  9994
2 39216   1.6594  83.8924 0001712 245.7717 311.0598  1.00272820 46049
FENGYUN 3C              
1 39260U 13052A   26064.93006977  .00000183  00000+0  11444-3 0  9998
2 39260  98.4886  43.6015 0014018 324.5960  35.4283 14.15727649643955
METEOR-M 2              
1 40069U 14037A   26064.95261068 -.00000050  00000+0 -34529-5 0  9993
2 40069  98.5020  44.4016 0005582 349.0225  11.0830 14.21426234604652
HIMAWARI-8              
1 40267U 14060A   26064.96764973 -.00000282  00000+0  00000+0 0  9990
2 40267   0.0252 238.2083 0000720  99.4681 315.0191  1.00271621 41726
FENGYUN 2G              
1 40367U 14090A   26064.95950303 -.00000307  00000+0  00000+0 0  9995
2 40367   5.3780  74.0689 0001748 151.3786  23.3502  1.00274073 40968
